1 33105U 08032A   18051.94070431 -.00000056  00000-0  23585-4 0  9997
2 33105  66.0418 319.1076 0007702 273.7473 160.1810 12.87627839452556
1 33446U 08061A   18052.53569464  .00000055  00000-0  14684-4 0  9990
2 33446  97.6149  40.1157 0015164 205.6170 154.4291 14.76742142496827
1 26034U 99070C   18052.56623412  .00001119  00000-0  77816-4 0  9990
2 26034  98.3029 271.2023 0014108  49.4313 310.8138 15.07801363983023
1 31571U 07020A   18051.65585491 -.00000093  00000-0  60835-4 0  9993
2 31571  51.9908  86.0752 0000289  85.5156  68.2623 12.62270368496102
1 39624U 14014A   18052.50521507  .00000063  00000-0  22599-4 0  9995
2 39624  98.0605 104.7528 0013638  98.3850 261.8897 14.59966777207646
1 38998U 12064B   18052.53520492  .00001263  00000-0  32820-4 0  9997
2 38998  97.3077  76.5687 0004878 230.9920 129.0893 15.40856133294332
1 37868U 11064B   18051.69474522  .00000046  00000-0  00000-0 0  9998
2 37868  64.4964 175.8627 0014741 241.2645  76.5063  2.13101810 49012
1 40534U 15013A   18051.72105901 -.00000050  00000-0  00000-0 0  9992
2 40534  54.8181 329.6035 0026971 356.6389   3.3819  2.00570600 21319
1 36402U 10007C   18051.69284131  .00000012  00000-0  10000-3 0  9999
2 36402  65.5250  56.2918 0002657 290.7714  52.8627  2.13101726 62068
1 26690U 01004A   18052.50398932  .00000003  00000-0  00000-0 0  9996
2 26690  53.0865 147.4083 0188087 259.8999 182.5145  2.00565015125011
1 38752U 12046A   18051.64097573 -.00000015  00000-0 -12577-4 0  9998
2 38752  10.0467  75.3154 6814255   1.6595 359.8162  2.68118278 53541
1 37775U 11041A   18052.12516420  .00000113  00000-0  00000-0 0  9998
2 37775   0.0491 334.8187 0004744  29.0386 211.3635  1.00270700 23931
1 40982U 15059A   18052.18582405 -.00000272  00000-0  00000-0 0  9994
2 40982   0.0432 268.4397 0002106  31.2905  60.2302  1.00271435  8691
1 28238U 04016A   18052.49826076 -.00000006  00000-0  00000-0 0  9999
2 28238   0.0304 300.0987 0003322  41.6912 229.8546  1.00272236 50602
1 28238U 04016A   18052.49826076 -.00000006  00000-0  00000-0 0  9999
2 28238   0.0304 300.0987 0003322  41.6912 229.8546  1.00272236 50602